OBJECT_NAME,OBJECT_ID,EPOCH,MEAN_MOTION,ECCENTRICITY,INCLINATION,RA_OF_ASC_NODE,ARG_OF_PERICENTER,MEAN_ANOMALY,EPHEMERIS_TYPE,CLASSIFICATION_TYPE,NORAD_CAT_ID,ELEMENT_SET_NO,REV_AT_EPOCH,BSTAR,MEAN_MOTION_DOT,MEAN_MOTION_DDOT
IRIDIUM 138,2017-083B,2026-07-17T05:55:54.934176,14.34219120,.0002061,86.3999,309.1504,92.8202,267.3230,0,U,43071,999,44844,.43166E-4,.141E-5,0
IRIDIUM 116,2017-083C,2026-07-17T06:50:43.065024,14.34218141,.0002498,86.3985,309.4198,97.5580,262.5899,0,U,43072,999,44848,.37483E-4,.125E-5,0
IRIDIUM 130,2017-083D,2026-07-17T14:27:23.343264,14.34218479,.0002316,86.3994,309.5657,100.5746,259.5711,0,U,43073,999,44847,.4211E-4,.138E-5,0
IRIDIUM 151,2017-083E,2026-07-17T17:11:47.179392,14.34218291,.0002271,86.3988,309.2981,95.1269,265.0186,0,U,43074,999,44851,.29148E-4,.101E-5,0
IRIDIUM 134,2017-083F,2026-07-17T06:23:19.209120,14.34217795,.0002245,86.3990,309.4946,95.7706,264.3746,0,U,43075,999,44841,.70115E-5,.39E-6,0
IRIDIUM 137,2017-083G,2026-07-17T13:23:27.274848,14.34217870,.000268,86.3991,309.4662,93.2307,266.9195,0,U,43076,999,44852,.6231E-5,.37E-6,0
IRIDIUM 141,2017-083H,2026-07-17T13:14:19.142880,14.34217913,.0002181,86.3985,309.2978,93.8087,266.3358,0,U,43077,999,44852,.21145E-4,.79E-6,0
IRIDIUM 153,2017-083J,2026-07-17T05:23:35.397600,14.34217841,.0002132,86.3959,277.9134,95.2478,264.8961,0,U,43078,999,44958,.11129E-4,.51E-6,0
IRIDIUM 131,2017-083K,2026-07-17T07:54:39.167136,14.34218109,.0002227,86.3990,309.5786,94.5395,265.6055,0,U,43079,999,44842,.14271E-4,.6E-6,0
IRIDIUM 144,2018-030A,2026-07-17T03:52:15.348864,14.34218360,.00024002,86.3955,277.8683,96.6450,263.5019,0,U,43249,999,43443,.24428658E-4,.88E-6,0
IRIDIUM 149,2018-030B,2026-07-17T15:44:39.410880,14.34218041,.0002255,86.3954,277.6280,93.5233,266.6221,0,U,43250,999,43452,.16953E-4,.67E-6,0
IRIDIUM 157,2018-030C,2026-07-17T04:28:47.570016,14.34218501,.00022694,86.3958,277.8784,94.1706,265.9750,0,U,43251,999,43443,.42136092E-4,.138E-5,0
IRIDIUM 140,2018-030D,2026-07-17T14:58:59.619360,14.34218170,.0002252,86.3957,277.7078,95.6876,264.4577,0,U,43252,999,43455,.40918E-4,.134E-5,0
IRIDIUM 145,2018-030E,2026-07-17T16:21:11.445408,14.34217565,.0002543,86.3956,277.6562,98.4503,261.6981,0,U,43253,999,43449,.23216E-4,.85E-6,0
IRIDIUM 146,2018-030F,2026-07-17T15:53:47.463360,14.34217620,.0002384,86.3957,277.6762,95.8297,264.3171,0,U,43254,999,43450,.13837E-4,.59E-6,0
IRIDIUM 148,2018-030G,2026-07-17T16:48:35.595072,14.34218606,.000234,86.3959,277.7037,93.2639,266.8824,0,U,43255,999,43454,.41563E-4,.136E-5,0
IRIDIUM 142,2018-030H,2026-07-17T16:02:55.469184,14.34217866,.0002435,86.3954,277.6049,95.4152,264.7321,0,U,43256,999,43450,.94888E-5,.46E-6,0
IRIDIUM 150,2018-030J,2026-07-17T15:17:15.363168,14.34217495,.0002292,86.3958,277.7355,96.3396,263.8061,0,U,43257,999,43452,.42368E-4,.138E-5,0
IRIDIUM 143,2018-030K,2026-07-17T14:49:51.506400,14.34217972,.0002367,86.3961,277.8373,97.1566,262.9899,0,U,43258,999,43445,.25562E-4,.91E-6,0
IRIDIUM 161,2018-047C,2026-07-17T04:32:30.870816,14.43276266,.0002227,86.4460,75.9240,80.7125,279.4328,0,U,43478,999,42946,.38757E-4,.151E-5,0
IRIDIUM 152,2018-047D,2026-07-17T04:07:46.267392,14.34218440,.0002137,86.3933,75.7924,84.1747,275.9693,0,U,43479,999,42678,.13724E-4,.58E-6,0
IRIDIUM 147,2018-047E,2026-07-17T16:00:10.280160,14.34217498,.0002286,86.3935,75.5912,87.9760,272.1697,0,U,43480,999,42685,.15324E-4,.63E-6,0
IRIDIUM 110,2018-047F,2026-07-17T01:05:06.055872,14.34219059,.0002076,86.3938,75.9440,77.7019,282.4409,0,U,43481,999,42675,.43965E-4,.143E-5,0
IRIDIUM 162,2018-047G,2026-07-17T16:02:17.986272,14.43279190,.0002198,86.4457,75.6141,86.9446,273.2006,0,U,43482,999,42952,.43135E-4,.165E-5,0
IRIDIUM 160,2018-061A,2026-07-17T13:10:50.435040,14.34217595,.0002225,86.3939,44.0968,86.7335,273.4115,0,U,43569,999,41772,.34125E-4,.115E-5,0
IRIDIUM 166,2018-061B,2026-07-17T12:06:54.492768,14.34217721,.0002289,86.3937,44.0655,89.8334,270.3124,0,U,43570,999,41774,.30949E-5,.28E-6,0
IRIDIUM 158,2018-061C,2026-07-17T13:01:42.430080,14.34217903,.0002102,86.3938,44.0591,88.2543,271.8893,0,U,43571,999,41771,.10658E-4,.5E-6,0
IRIDIUM 165,2018-061D,2026-07-17T01:54:58.562208,14.34217437,.0002278,86.3940,44.3002,90.0670,270.0787,0,U,43572,999,41767,.11069E-4,.51E-6,0
IRIDIUM 155,2018-061E,2026-07-17T12:43:26.473728,14.34217584,.0002145,86.3936,43.9793,90.7200,269.4242,0,U,43573,999,41770,.65145E-5,.38E-6,0
IRIDIUM 154,2018-061F,2026-07-17T13:56:30.464160,14.34217539,.0002311,86.3939,44.0932,89.8671,270.2790,0,U,43574,999,41776,.37774E-5,.3E-6,0
IRIDIUM 163,2018-061G,2026-07-17T11:48:38.526048,14.34217181,.0002002,86.3934,44.0445,85.3177,274.8247,0,U,43575,999,41772,.11264E-8,.2E-6,0
